[{"OBJECT_NAME":"STARLINK-6165","OBJECT_ID":"2023-090AC","EPOCH":"2026-03-09T22:14:46.541184","MEAN_MOTION":15.02538238,"ECCENTRICITY":0.00013725,"INCLINATION":43.0039,"RA_OF_ASC_NODE":272.9651,"ARG_OF_PERICENTER":278.6107,"MEAN_ANOMALY":81.458,"EPHEMERIS_TYPE":0,"CLASSIFICATION_TYPE":"U","NORAD_CAT_ID":57127,"ELEMENT_SET_NO":999,"REV_AT_EPOCH":15026,"BSTAR":3.7116568e-5,"MEAN_MOTION_DOT":2.98e-6,"MEAN_MOTION_DDOT":0},{"OBJECT_NAME":"CZ-6A DEB","OBJECT_ID":"2024-140ABZ","EPOCH":"2026-03-09T13:17:15.461088","MEAN_MOTION":14.68773562,"ECCENTRICITY":0.01674753,"INCLINATION":88.9962,"RA_OF_ASC_NODE":280.8142,"ARG_OF_PERICENTER":196.7539,"MEAN_ANOMALY":162.8109,"EPHEMERIS_TYPE":0,"CLASSIFICATION_TYPE":"U","NORAD_CAT_ID":61809,"ELEMENT_SET_NO":999,"REV_AT_EPOCH":8094,"BSTAR":0.00036405273,"MEAN_MOTION_DOT":2.652e-5,"MEAN_MOTION_DDOT":0}]
